ENTRYSAT                
1 44429U 98067QP  20056.90003300  .00009500  00000-0  14215-3 0  9991
2 44429  51.6398 178.0068 0002461 270.9150  89.1559 15.55719527 36984
VCC C                   
1 44430U 98067QQ  20056.55240613  .00012883  00000-0  18616-3 0  9991
2 44430  51.6406 179.4422 0002684 285.4625  74.6070 15.56310230 35761
VCC B                   
1 44431U 98067QR  20056.61890703  .00009048  00000-0  13850-3 0  9994
2 44431  51.6408 179.8833 0002802 279.0635  81.0039 15.55162841 36878
DUCHIFAT-3              
1 44854U 19089C   20057.32333291  .00000376  00000-0  36912-4 0  9993
2 44854  36.9686  40.9756 0008476 241.7467 118.2405 14.98979301 11466
